[{"OBJECT_NAME":"STARLINK-1270","OBJECT_ID":"2020-012BM","EPOCH":"2026-03-09T23:16:53.813856","MEAN_MOTION":15.47116373,"ECCENTRICITY":0.00038015,"INCLINATION":53.0511,"RA_OF_ASC_NODE":346.2195,"ARG_OF_PERICENTER":102.222,"MEAN_ANOMALY":257.9213,"EPHEMERIS_TYPE":0,"CLASSIFICATION_TYPE":"U","NORAD_CAT_ID":45237,"ELEMENT_SET_NO":999,"REV_AT_EPOCH":33571,"BSTAR":0.0019102409,"MEAN_MOTION_DOT":0.00099262,"MEAN_MOTION_DDOT":0},{"OBJECT_NAME":"OBJECT R","OBJECT_ID":"2024-199R","EPOCH":"2026-03-09T21:37:29.244288","MEAN_MOTION":15.48356737,"ECCENTRICITY":0.00065431,"INCLINATION":97.3114,"RA_OF_ASC_NODE":303.0259,"ARG_OF_PERICENTER":290.9489,"MEAN_ANOMALY":69.1061,"EPHEMERIS_TYPE":0,"CLASSIFICATION_TYPE":"U","NORAD_CAT_ID":61750,"ELEMENT_SET_NO":999,"REV_AT_EPOCH":12215,"BSTAR":0.00070051746,"MEAN_MOTION_DOT":0.00037122,"MEAN_MOTION_DDOT":0}]
